[{"OBJECT_NAME":"STARLINK-30380","OBJECT_ID":"2023-134K","EPOCH":"2026-03-09T15:55:33.829536","MEAN_MOTION":15.27567352,"ECCENTRICITY":0.00017682,"INCLINATION":43.0014,"RA_OF_ASC_NODE":194.5511,"ARG_OF_PERICENTER":269.1236,"MEAN_ANOMALY":90.9413,"EPHEMERIS_TYPE":0,"CLASSIFICATION_TYPE":"U","NORAD_CAT_ID":57780,"ELEMENT_SET_NO":999,"REV_AT_EPOCH":13950,"BSTAR":-6.6602077e-5,"MEAN_MOTION_DOT":-2.094e-5,"MEAN_MOTION_DDOT":0},{"OBJECT_NAME":"REAL","OBJECT_ID":"2025-154G","EPOCH":"2026-03-09T17:20:09.670560","MEAN_MOTION":15.28408058,"ECCENTRICITY":0.00018528,"INCLINATION":97.4133,"RA_OF_ASC_NODE":137.2581,"ARG_OF_PERICENTER":118.5876,"MEAN_ANOMALY":241.555,"EPHEMERIS_TYPE":0,"CLASSIFICATION_TYPE":"U","NORAD_CAT_ID":64875,"ELEMENT_SET_NO":999,"REV_AT_EPOCH":3483,"BSTAR":0.0008290401,"MEAN_MOTION_DOT":0.00022901,"MEAN_MOTION_DDOT":0}]
